QZS-1R                  
1 49336U 21096A   23296.30623488 -.00000190  00000+0  00000+0 0  9998
2 49336  35.4554  94.1650 0747414 270.1379 272.6117  1.00275468  7291
